OBJECT_NAME,OBJECT_ID,EPOCH,MEAN_MOTION,ECCENTRICITY,INCLINATION,RA_OF_ASC_NODE,ARG_OF_PERICENTER,MEAN_ANOMALY,EPHEMERIS_TYPE,CLASSIFICATION_TYPE,NORAD_CAT_ID,ELEMENT_SET_NO,REV_AT_EPOCH,BSTAR,MEAN_MOTION_DOT,MEAN_MOTION_DDOT
SAUDISAT 1C (SO-50),2002-058C,2026-06-11T05:18:34.227072,14.83033486,.00754096,64.5506,147.4439,263.5789,95.6727,0,U,27607,999,26357,.1165672E-3,.841E-5,0
SAUDISAT 2,2004-025F,2026-06-11T06:13:02.915328,14.56680399,.00238394,98.5507,162.0878,317.2308,42.7033,0,U,28371,999,16488,.61069557E-4,.224E-5,0
SAUDISAT 3,2007-012B,2026-06-10T20:47:43.468512,14.71421993,.00133639,98.1453,112.2630,245.6842,114.2970,0,U,31118,999,2681,.43182537E-4,.217E-5,0
PISAT,2016-059B,2026-06-11T00:19:33.782016,14.68973040,.0027925,97.8178,162.7317,223.1111,136.7909,0,U,41784,999,51883,.14094525E-3,.783E-5,0
FLYING LAPTOP,2017-042G,2026-06-11T07:40:11.437248,15.01107587,.00192752,97.4660,318.0797,140.7203,219.5424,0,U,42831,999,48557,.26502386E-3,.3348E-4,0
SALSAT,2020-068K,2026-06-11T06:12:14.093280,15.29713226,.00085551,97.8851,164.9624,332.6699,27.4089,0,U,46495,999,31445,.22075972E-3,.6276E-4,0
